STARLINK-31541          
1 59633U 24082C   24131.16667824 -.00844425  22511-3 -22770-2 0  9996
2 59633  43.0034 353.9328 0001922 287.1371 118.1704 15.93383637  2314
STARLINK-31797          
1 59634U 24082D   24131.16667824 -.00863587  23516-3 -22937-2 0  9998
2 59634  43.0032 353.9235 0002044 286.0141 122.8458 15.93671861  2114
STARLINK-31798          
1 59635U 24082E   24131.16667824 -.00868549  23752-3 -23124-2 0  9993
2 59635  43.0033 353.9260 0001943 280.9713 127.0035 15.93628120  2117
STARLINK-31802          
1 59636U 24082F   24131.16667824 -.00907324  25832-3 -23601-2 0  9990
2 59636  43.0032 353.9121 0001822 277.9513 135.5257 15.94072210  2117
STARLINK-31791          
1 59637U 24082G   24131.16667824 -.00870518  23883-3 -23005-2 0  9997
2 59637  43.0033 353.9208 0001980 286.7847 123.2188 15.93768000  2113
STARLINK-31727          
1 59638U 24082H   24131.16667824 -.00876741  24215-3 -23068-2 0  9991
2 59638  43.0033 353.9182 0002313 280.4766 130.5473 15.93850211  2166
STARLINK-31807          
1 59639U 24082J   24131.16667824 -.00906938  25840-3 -23454-2 0  9998
2 59639  43.0032 353.9087 0001938 282.2780 132.4831 15.94180730  2115
STARLINK-31806          
1 59640U 24082K   24131.16667824 -.00888076  24822-3 -23198-2 0  9996
2 59640  43.0033 353.9144 0001964 286.9908 125.5236 15.93989237  2114
STARLINK-31804          
1 59641U 24082L   24131.16667824 -.00902290  25610-3 -23281-2 0  9991
2 59641  43.0033 353.9065 0002063 285.7954 129.7096 15.94221802  2114
STARLINK-31660          
1 59642U 24082M   24131.16667824  .00813903  31283-3  15501-2 0  9991
2 59642  43.0030 353.8595 0003415 252.7800 181.2125 15.99832441  2315
STARLINK-31800          
1 59643U 24082N   24131.16667824 -.00909183  25977-3 -23415-2 0  9996
2 59643  43.0030 353.9049 0002167 275.7011 140.4501 15.94257566  2211
STARLINK-31789          
1 59644U 24082P   24131.16667824 -.00925871  26916-3 -23547-2 0  9999
2 59644  43.0030 353.8982 0001917 285.5412 133.2812 15.94496025  2314
STARLINK-31795          
1 59645U 24082Q   24131.16667824 -.00949335  28268-3 -23715-2 0  9990
2 59645  43.0027 353.8864 0001931 284.1941 139.1599 15.94833349  2117
STARLINK-31796          
1 59646U 24082R   24131.16667824 -.00931850  27276-3 -23506-2 0  9990
2 59646  43.0026 353.8919 0002097 285.6049 135.5347 15.94648703  2273
STARLINK-31801          
1 59647U 24082S   24131.16667824 -.00960211  28891-3 -23858-2 0  9998
2 59647  43.0027 353.8833 0002188 275.5206 148.9943 15.94934011  2162
STARLINK-31790          
1 59648U 24082T   24131.16667824 -.00963290  29107-3 -23728-2 0  9996
2 59648  43.0025 353.8780 0001651 281.7248 144.9853 15.95097044  2108
STARLINK-31803          
1 59649U 24082U   24131.16667824 -.00923317  26796-3 -23411-2 0  9993
2 59649  43.0026 353.8949 0002070 284.3139 135.6818 15.94551453  2163
STARLINK-31787          
1 59650U 24082V   24131.16667824 -.00963899  29126-3 -23806-2 0  9992
2 59650  43.0025 353.8803 0001979 286.4745 139.3440 15.95046955  2312
STARLINK-31277          
1 59651U 24082W   24131.16667824 -.00944178  27970-3 -23668-2 0  9993
2 59651  43.0028 353.8892 0002003 285.4501 137.0069 15.94767877  2316
STARLINK-31799          
1 59652U 24082X   24131.16667824 -.00990524  30673-3 -24205-2 0  9992
2 59652  43.0027 353.8742 0001656 276.5291 151.6889 15.95249204  2165
STARLINK-31764          
1 59653U 24082Y   24131.16667824 -.00981935  30201-3 -23943-2 0  9994
2 59653  43.0027 353.8724 0001929 286.7780 142.3326 15.95286941  2314
